GLOBALSTAR M057         
1 25943U 99058A   25052.96710717 -.00000018  00000+0  68309-3 0  9994
2 25943  52.0004 315.1992 0002851 127.1500 232.9611 12.24813356152814
GLOBALSTAR M059         
1 25944U 99058B   25052.82777712 -.00000085  00000+0  12870-4 0  9995
2 25944  52.0011 159.2564 0001187 109.7105  37.0369 11.99973942560190
GLOBALSTAR M056         
1 25945U 99058C   25052.61332177 -.00000130  00000+0 -49552-3 0  9993
2 25945  51.9956 164.7613 0000268 359.5623 102.0178 12.04777409148697
GLOBALSTAR M031         
1 25946U 99058D   25052.78583119  .00000030  00000+0  12220-2 0  9994
2 25946  51.9964  63.5311 0001127 304.4202 226.9686 12.16029629150505
GLOBALSTAR M039         
1 25961U 99062A   25052.87827827 -.00000050  00000+0  29744-3 0  9996
2 25961  51.9828 259.9261 0003635  91.0265 269.1018 12.62319225165655
GLOBALSTAR M034         
1 25962U 99062B   25052.95144100 -.00000046  00000+0  55866-3 0  9991
2 25962  51.9891 310.9380 0013807 180.3934 263.9104 11.79444557124795
GLOBALSTAR M029         
1 25963U 99062C   25052.96543990 -.00000070  00000+0  20497-3 0  9992
2 25963  51.9814  47.0177 0002389 248.7474 126.9229 11.99891728155297
GLOBALSTAR M061         
1 25964U 99062D   25052.96938778 -.00000085  00000+0 -77718-4 0  9991
2 25964  51.9786 133.3934 0006648 110.9321  60.0823 11.76770902107615
